ADRAS-J                 
1 58992U 24034A   24214.91372369  .00004063  00000+0  37560-3 0  9995
2 58992  98.2145 190.0314 0041920 257.9478 101.7042 14.94529689 24693
